GLOBALSTAR M094         
1 39074U 13005C   25114.80661103 -.00000075  00000+0  15876-3 0  9992
2 39074  51.9984 344.6442 0000981 103.5213 256.5763 12.62270083565631
GLOBALSTAR M096         
1 39075U 13005D   25115.05742710 -.00000093  00000+0  58426-4 0  9994
2 39075  52.0097  32.3520 0000806  87.1884 272.9075 12.62270431564931
GLOBALSTAR M078         
1 39076U 13005E   25115.18903221 -.00000092  00000+0  68215-4 0  9991
2 39076  51.9851 116.5313 0001195  66.6707 293.4285 12.62261565563434
GLOBALSTAR M095         
1 39077U 13005F   25114.42375050 -.00000083  00000+0  11416-3 0  9991
2 39077  51.9776 116.0861 0000753  90.5127 269.5825 12.62269374562984
GLOBALSTAR M087         
1 52888U 22064A   25114.77110340 -.00000100  00000+0  19743-4 0  9990
2 52888  51.9785 256.4312 0000828 115.4741 244.6211 12.62271290138297
